{
"type": "FeatureCollection",
"name": "lamothe_isobathes",
"crs": { "type": "name", "properties": { "name": "urn:ogc:def:crs:OGC:1.3:CRS84" } },
"features": [
{ "type": "Feature", "properties": { "PROFONDEUR_M": 2.0 }, "geometry": { "type": "MultiLineString", "coordinates": [ [ [ -71.761387278663733, 47.435178619406855 ], [ -71.761457511909825, 47.435035041724689 ], [ -71.761528026877116, 47.434903361007869 ], [ -71.76157213739674, 47.434840994056316 ], [ -71.76162320479024, 47.434776169314866 ], [ -71.761667883394807, 47.434737596168482 ], [ -71.761726589709426, 47.434698868727445 ], [ -71.761802659751311, 47.434652809626769 ], [ -71.761868435332914, 47.434616385652106 ], [ -71.76194088540143, 47.434565605064343 ], [ -71.762006263435993, 47.434512524589891 ], [ -71.762088721313347, 47.43444021367192 ], [ -71.762163991988231, 47.434360843424386 ], [ -71.762197865644069, 47.434310487538994 ], [ -71.762211097196186, 47.434277020413845 ], [ -71.762217256756202, 47.434241251661248 ], [ -71.762251015297835, 47.434186138127558 ], [ -71.762292300694384, 47.43415236233875 ], [ -71.762337434509007, 47.434132825031234 ], [ -71.762392974849604, 47.434108412007525 ], [ -71.762459319281803, 47.434095781459376 ], [ -71.76251887807247, 47.434092746104525 ], [ -71.762578721779263, 47.434101605796869 ], [ -71.762624480575766, 47.434108243737569 ], [ -71.762670012971512, 47.434105360851632 ], [ -71.762732907636476, 47.434095148012666 ], [ -71.762802587826101, 47.434075339883798 ], [ -71.762875888927766, 47.434060251221446 ], [ -71.762942404586937, 47.43405475957173 ], [ -71.763058015946896, 47.434048724614108 ], [ -71.763163275745683, 47.43404994510599 ], [ -71.7632512886874, 47.434063256755621 ], [ -71.763332343307283, 47.4340790226574 ], [ -71.763537105115702, 47.434133889932518 ], [ -71.763717662103929, 47.434203300706642 ], [ -71.76394420649541, 47.434288865710471 ], [ -71.764021960937313, 47.43431323739825 ], [ -71.764099566706136, 47.434331422444252 ], [ -71.764194763680365, 47.434351792576194 ], [ -71.764314624229812, 47.434376652837948 ], [ -71.764399015488706, 47.434385242310697 ], [ -71.764487369893985, 47.434412829621259 ], [ -71.764536921813786, 47.434431321793461 ], [ -71.764569051574512, 47.434454768150545 ], [ -71.76460141202169, 47.434487733381374 ], [ -71.764619802336341, 47.434523231187498 ], [ -71.764627898798352, 47.434568362636966 ], [ -71.764614898163643, 47.434611349005237 ], [ -71.764605117693065, 47.434642396700191 ], [ -71.764574183738887, 47.434668919541352 ], [ -71.764529165647048, 47.434693217264453 ], [ -71.764473569260204, 47.434715249869704 ], [ -71.764410786812363, 47.434730223281655 ], [ -71.764337428852812, 47.434742933262861 ], [ -71.764197610701657, 47.434763515445241 ], [ -71.764050437538415, 47.434769898963729 ], [ -71.763896363645458, 47.434781118165901 ], [ -71.763731770520096, 47.434792453451955 ], [ -71.763665253939635, 47.434797945605446 ], [ -71.76359540034106, 47.434810616959972 ], [ -71.763546818027478, 47.43483257269687 ], [ -71.763487486176871, 47.434845127607964 ], [ -71.76336520251327, 47.434865515987219 ], [ -71.763270914152258, 47.434883215619749 ], [ -71.7631976694054, 47.434900682496142 ], [ -71.763131495514784, 47.434920452733898 ], [ -71.763061926768941, 47.434945020633258 ], [ -71.762978446595056, 47.434974502339465 ], [ -71.76289162750794, 47.435011157839362 ], [ -71.762808374647008, 47.435050156588616 ], [ -71.762725347838597, 47.435098672491371 ], [ -71.762670091605543, 47.435134982626295 ], [ -71.762632484232711, 47.435175857864195 ], [ -71.762574518326687, 47.435245520699013 ], [ -71.76253109248556, 47.435336439604363 ], [ -71.76248698154096, 47.435398808845505 ], [ -71.762443555520065, 47.435489729537146 ], [ -71.762403122915671, 47.435559198020037 ], [ -71.76236343141548, 47.435659597732467 ], [ -71.762326504487476, 47.435729026291853 ], [ -71.762310051673126, 47.435774430325559 ], [ -71.762303721983969, 47.435803059902483 ], [ -71.762304518187563, 47.43583637275951 ], [ -71.762291343827144, 47.435872219700151 ], [ -71.762281506720456, 47.435900887428232 ], [ -71.762260920229764, 47.435920156014333 ], [ -71.7622330352863, 47.435927603933287 ], [ -71.762197795687015, 47.435920851410707 ], [ -71.762137835924335, 47.435907230181471 ], [ -71.76208489098228, 47.435893532635575 ], [ -71.762028266180366, 47.435872735823963 ], [ -71.761968022946903, 47.435847217543142 ], [ -71.761911572056704, 47.435833558007971 ], [ -71.761844370481995, 47.435810497498977 ], [ -71.761777283903925, 47.435792194599806 ], [ -71.761692663348711, 47.435774085823688 ], [ -71.761622125806994, 47.435758202524816 ], [ -71.76157799370074, 47.435746311989476 ], [ -71.761542526917822, 47.435730040260644 ], [ -71.761524195910454, 47.43569692158141 ], [ -71.761502357550839, 47.435663841022773 ], [ -71.761494604784787, 47.43563298594038 ], [ -71.761472652778053, 47.435595145885024 ], [ -71.761454435442218, 47.435566784891925 ], [ -71.761407539020865, 47.435512558702939 ], [ -71.761371331879872, 47.435465355684919 ], [ -71.761345702945022, 47.435420416272564 ], [ -71.761330993106753, 47.435392017148473 ], [ -71.761326632839669, 47.435356364498517 ], [ -71.76133273701123, 47.435318215974121 ], [ -71.76134901951761, 47.435265674708454 ], [ -71.761365359494832, 47.435215513169382 ], [ -71.761387278663733, 47.435178619406855 ] ] ] } },
{ "type": "Feature", "properties": { "PROFONDEUR_M": 4.0 }, "geometry": { "type": "MultiLineString", "coordinates": [ [ [ -71.76183504906821, 47.43476050956275 ], [ -71.761986621844287, 47.43464459727452 ], [ -71.762072813329169, 47.434581765427971 ], [ -71.762173146201562, 47.434523540466699 ], [ -71.762235415244945, 47.434487152571577 ], [ -71.762283714037878, 47.434453298717273 ], [ -71.762324999759869, 47.434419524704154 ], [ -71.762373639646142, 47.434399947463284 ], [ -71.762436135955852, 47.43437307842445 ], [ -71.762540373953627, 47.434331469547494 ], [ -71.762589127467308, 47.434316651693308 ], [ -71.762669100918345, 47.4342872102455 ], [ -71.762745568325343, 47.434257806860693 ], [ -71.762800993453098, 47.434228634175952 ], [ -71.762856590041693, 47.434206602468215 ], [ -71.762901723679676, 47.43418706491768 ], [ -71.762978475931348, 47.434169558251213 ], [ -71.763048555013825, 47.434166404520496 ], [ -71.76311162112188, 47.43416333065705 ], [ -71.763196183132152, 47.434179058490173 ], [ -71.763344322985077, 47.434213128140719 ], [ -71.763439976159418, 47.434252535036215 ], [ -71.76351849251806, 47.434308792763844 ], [ -71.763589883249679, 47.434360367255913 ], [ -71.763643737828176, 47.434412134473241 ], [ -71.763662355229798, 47.434457151409006 ], [ -71.763691432817282, 47.434499672360694 ], [ -71.763699531067957, 47.434544803797564 ], [ -71.763693485144955, 47.434585332178067 ], [ -71.763677033875126, 47.434630734546616 ], [ -71.763646498638124, 47.434673913489632 ], [ -71.763608948732184, 47.434717168811069 ], [ -71.76357122724589, 47.434753284914116 ], [ -71.763512180775976, 47.434777736729444 ], [ -71.763442613754989, 47.434802304833617 ], [ -71.763397136907798, 47.434807566017888 ], [ -71.763320386454083, 47.434825072923246 ], [ -71.763250761670065, 47.434847261179932 ], [ -71.763184358822102, 47.434857512517183 ], [ -71.763107493030446, 47.434870259823214 ], [ -71.763048388596545, 47.434892331660166 ], [ -71.762964850921009, 47.43491943363022 ], [ -71.762905688781032, 47.434939125665593 ], [ -71.762843363409843, 47.434973134216271 ], [ -71.762777529173505, 47.435007179135688 ], [ -71.76270847404453, 47.435053160837633 ], [ -71.762622281217674, 47.435115993288477 ], [ -71.762529246053163, 47.435186039358513 ], [ -71.762498539416583, 47.435222078749 ], [ -71.762474957117789, 47.435262799635588 ], [ -71.762434526075083, 47.435332268066134 ], [ -71.762400880731207, 47.435392141242978 ], [ -71.7623711400025, 47.435468630901646 ], [ -71.762344507770862, 47.435528426009625 ], [ -71.762314084441471, 47.435576362314833 ], [ -71.762290389488697, 47.435612325449171 ], [ -71.762277330160231, 47.435652930026563 ], [ -71.762268288059786, 47.435714912438279 ], [ -71.762259019717078, 47.43576737582557 ], [ -71.762256366053236, 47.43580310655507 ], [ -71.762250092551184, 47.435834115897791 ], [ -71.762229560849008, 47.435855762483108 ], [ -71.762194493944918, 47.435856149140484 ], [ -71.762152124652687, 47.435844715241643 ], [ -71.762088432992059, 47.435821616661777 ], [ -71.761957537035244, 47.435775455888951 ], [ -71.761840614531152, 47.435726760854664 ], [ -71.761794683182075, 47.43571298513907 ], [ -71.761762836127204, 47.435701434888358 ], [ -71.76174133997695, 47.435682631017926 ], [ -71.761702024894944, 47.435652122596316 ], [ -71.761670008114024, 47.435633434859227 ], [ -71.761631088994179, 47.43561958290077 ], [ -71.761577917217224, 47.435596367920908 ], [ -71.761531417799901, 47.435558798229813 ], [ -71.761520100150477, 47.435525601551099 ], [ -71.761504764412976, 47.435471028860199 ], [ -71.761510868337808, 47.435432878517275 ], [ -71.761525673187094, 47.435318472829351 ], [ -71.761534089055871, 47.435230316981411 ], [ -71.761563489966974, 47.435139550916141 ], [ -71.761586559422952, 47.435077414399139 ], [ -71.7616198071496, 47.435000886920982 ], [ -71.761653398321073, 47.434938634221766 ], [ -71.761714700054654, 47.434861796426588 ], [ -71.76180077867177, 47.434794207096211 ], [ -71.76183504906821, 47.43476050956275 ] ] ] } },
{ "type": "Feature", "properties": { "PROFONDEUR_M": 6.0 }, "geometry": { "type": "MultiLineString", "coordinates": [ [ [ -71.761901909425873, 47.434769293340224 ], [ -71.762026391039342, 47.434694139887974 ], [ -71.762140581986117, 47.434628621378337 ], [ -71.762220212266925, 47.434584901881763 ], [ -71.762272191113325, 47.434558149048605 ], [ -71.762327730766714, 47.434533737886817 ], [ -71.76241121190553, 47.43450425667374 ], [ -71.762491130868469, 47.434472435548685 ], [ -71.762556848004522, 47.434433629630924 ], [ -71.762594853719804, 47.43440941083675 ], [ -71.762657067508968, 47.434370644696948 ], [ -71.76272646437009, 47.43433893968249 ], [ -71.762771709348314, 47.434324161749366 ], [ -71.762834491776658, 47.434309189322107 ], [ -71.762904513610593, 47.434303657767188 ], [ -71.762971200781223, 47.434305301697869 ], [ -71.763045185138651, 47.434318768008993 ], [ -71.76313037414603, 47.434360671233932 ], [ -71.763257930135836, 47.434414006079308 ], [ -71.763382320879032, 47.434481659212317 ], [ -71.763428706811808, 47.434514468543597 ], [ -71.763454051934318, 47.434547510501446 ], [ -71.763468764086241, 47.434575909252942 ], [ -71.763462432581122, 47.434604538931062 ], [ -71.763449204457771, 47.434638006147068 ], [ -71.763425283033243, 47.434664450516536 ], [ -71.763394517131061, 47.4346981105003 ], [ -71.763349783659393, 47.434734304612498 ], [ -71.763304763566552, 47.434758601856409 ], [ -71.763249338136518, 47.434787774828692 ], [ -71.763179769519226, 47.434812340999187 ], [ -71.76309973924991, 47.434839403093171 ], [ -71.763054605206293, 47.434858942549056 ], [ -71.762998724257145, 47.434869079247925 ], [ -71.762932548879661, 47.434888847599268 ], [ -71.762873500595589, 47.43491329910298 ], [ -71.762793640061162, 47.434947500220694 ], [ -71.762713950802407, 47.434988840491243 ], [ -71.762648231591626, 47.435027644777989 ], [ -71.762582568513579, 47.435068828790968 ], [ -71.76252397623233, 47.43511231621877 ], [ -71.762475904295599, 47.435155685591383 ], [ -71.762400745477933, 47.435239817487677 ], [ -71.762339214136787, 47.435307136825095 ], [ -71.762277512748554, 47.435367318677699 ], [ -71.762236737369292, 47.43542250865034 ], [ -71.762205804279944, 47.435449030745119 ], [ -71.762140082712378, 47.435487834782663 ], [ -71.762077812314189, 47.435524222675241 ], [ -71.762018762826969, 47.435548673723339 ], [ -71.761941896962924, 47.435561420151785 ], [ -71.76188250627483, 47.435571594447509 ], [ -71.761819609518554, 47.435581806801615 ], [ -71.761770455918921, 47.435579967923395 ], [ -71.761717623829455, 47.435571029734049 ], [ -71.761668130427196, 47.435554912287522 ], [ -71.761636112395664, 47.43553622458392 ], [ -71.761617838795431, 47.435505483854499 ], [ -71.761591926127849, 47.435448647549208 ], [ -71.761586654925054, 47.435374922614479 ], [ -71.761595697953453, 47.435312942094079 ], [ -71.761600321536903, 47.435212927461741 ], [ -71.761616661236758, 47.435162765887632 ], [ -71.761639786948578, 47.435103010924244 ], [ -71.761666477214291, 47.435045593954264 ], [ -71.761682703074371, 47.434990672893029 ], [ -71.761709848098178, 47.434952293877117 ], [ -71.76175214424336, 47.434896230151146 ], [ -71.761802030626043, 47.434846556016623 ], [ -71.761867407741903, 47.434793473845559 ], [ -71.761901909425873, 47.434769293340224 ] ] ] } },
{ "type": "Feature", "properties": { "PROFONDEUR_M": 8.0 }, "geometry": { "type": "MultiLineString", "coordinates": [ [ [ -71.762173437697257, 47.434696108305644 ], [ -71.762281575378481, 47.434641603004245 ], [ -71.762356414763516, 47.434602697205371 ], [ -71.762436860731214, 47.434563731548003 ], [ -71.762517492408335, 47.434532377641077 ], [ -71.762573054596487, 47.434508917166937 ], [ -71.762628662229361, 47.43448736009784 ], [ -71.762709430160498, 47.434461716348004 ], [ -71.762759563760454, 47.434445933060459 ], [ -71.762812684503345, 47.434437730804419 ], [ -71.762882776176085, 47.434435055272573 ], [ -71.762967123099187, 47.434441742417469 ], [ -71.763074139827296, 47.434457699596365 ], [ -71.763178716836606, 47.434488914978218 ], [ -71.763257817644288, 47.434510892931662 ], [ -71.763286418171873, 47.434533427005718 ], [ -71.763306604209646, 47.434556053700739 ], [ -71.763304298496607, 47.434577024201026 ], [ -71.763293579464417, 47.434598085485938 ], [ -71.763277247318612, 47.434619210432146 ], [ -71.763249648490543, 47.434638555495702 ], [ -71.763213585601477, 47.434656089862713 ], [ -71.763171869245511, 47.434671782474013 ], [ -71.763121916411706, 47.434695181541187 ], [ -71.763011246015978, 47.434761139235967 ], [ -71.76288374341479, 47.434827280290648 ], [ -71.762803385967118, 47.434870056858855 ], [ -71.762720360789345, 47.43491857270368 ], [ -71.762604351713577, 47.43499601235041 ], [ -71.762471737982338, 47.435083156061978 ], [ -71.762350343717216, 47.435170176203059 ], [ -71.762322879340189, 47.435195231387716 ], [ -71.762259674972952, 47.435251144508136 ], [ -71.762210222862791, 47.435295482719155 ], [ -71.762146560776372, 47.43533236150131 ], [ -71.762093939203083, 47.435361501230517 ], [ -71.762021814145939, 47.435396569117493 ], [ -71.761971679324589, 47.435412352076497 ], [ -71.761927062985663, 47.435424268276293 ], [ -71.761873851280939, 47.43542866138236 ], [ -71.761820500629256, 47.435427346036072 ], [ -71.761789502915093, 47.435421975155172 ], [ -71.761758368812153, 47.435410893955783 ], [ -71.761729767149106, 47.435388359479255 ], [ -71.761723519873939, 47.435361771263153 ], [ -71.761725279292321, 47.435317957777322 ], [ -71.761731192937489, 47.435213169083781 ], [ -71.761749144969258, 47.435142520699266 ], [ -71.761775835248585, 47.435085105500001 ], [ -71.761802526792465, 47.435027690257783 ], [ -71.761851159000528, 47.434949086859547 ], [ -71.761897486164358, 47.434891455687918 ], [ -71.761955081211511, 47.434835604480583 ], [ -71.762012858024406, 47.434787366984821 ], [ -71.762082039130149, 47.434746619730163 ], [ -71.762129005188797, 47.434715636472745 ], [ -71.762173437697257, 47.434696108305644 ] ] ] } },
{ "type": "Feature", "properties": { "PROFONDEUR_M": 10.0 }, "geometry": { "type": "MultiLineString", "coordinates": [ [ [ -71.762050759537843, 47.434964026722554 ], [ -71.76210260612747, 47.434902526877195 ], [ -71.762168389323634, 47.434837064003993 ], [ -71.762217841004997, 47.434792725842563 ], [ -71.76228399055492, 47.434742492102501 ], [ -71.762333760565099, 47.434711479734553 ], [ -71.762408688340471, 47.434676380845133 ], [ -71.762481038305822, 47.434650831743781 ], [ -71.762534115152931, 47.434640726150462 ], [ -71.762623707523446, 47.434632122601279 ], [ -71.762685609805388, 47.43463905702437 ], [ -71.762714029462828, 47.434653977480956 ], [ -71.76272846687128, 47.434670955777271 ], [ -71.762729058404332, 47.434695700419461 ], [ -71.76272123418542, 47.434720539486783 ], [ -71.762704903077193, 47.434741664307062 ], [ -71.762669023243646, 47.434766812186425 ], [ -71.762622195303251, 47.434803505948757 ], [ -71.762550574564685, 47.434859511866108 ], [ -71.762492569404955, 47.434898232528987 ], [ -71.762426148119729, 47.434937043959245 ], [ -71.762335023856352, 47.434998979793527 ], [ -71.762227203700604, 47.435066807423745 ], [ -71.762182951715289, 47.435093953010416 ], [ -71.762105264502239, 47.435130984211455 ], [ -71.762049744318247, 47.435156349780286 ], [ -71.762013499917998, 47.435166268164771 ], [ -71.761985401269499, 47.435164673277413 ], [ -71.761956936185484, 47.435147850979398 ], [ -71.761939557173477, 47.435125193112 ], [ -71.7619500962264, 47.435096516363359 ], [ -71.761957875306493, 47.435069772102274 ], [ -71.761998773859872, 47.435019818126136 ], [ -71.762050759537843, 47.434964026722554 ] ] ] } }
]
}
