{
"type": "FeatureCollection",
"name": "saint_jean_isobathes",
"crs": { "type": "name", "properties": { "name": "urn:ogc:def:crs:OGC:1.3:CRS84" } },
"features": [
{ "type": "Feature", "properties": { "PROFONDEUR_M": 1.6, "HYDRONYME": "Saint-Jean, Lac" }, "geometry": { "type": "MultiLineString", "coordinates": [ [ [ -68.337484326456973, 48.051142891167743 ], [ -68.33757055020493, 48.051031841119766 ], [ -68.337653966941232, 48.050922714716933 ], [ -68.337731673636085, 48.050811723824779 ], [ -68.337764601075179, 48.050741042028861 ], [ -68.337792191164723, 48.050691341325937 ], [ -68.337845270103884, 48.050637646503056 ], [ -68.337929609968342, 48.050585627434728 ], [ -68.33799173099132, 48.050564232500591 ], [ -68.338071072029251, 48.050554133599618 ], [ -68.338181429254149, 48.050530483005744 ], [ -68.338303049291326, 48.050501038384574 ], [ -68.33843892633621, 48.050475296036502 ], [ -68.338571902812362, 48.050445769015255 ], [ -68.338736017605939, 48.050410300995466 ], [ -68.338928338835032, 48.050363204602739 ], [ -68.339095783780309, 48.050358175126412 ], [ -68.339206385180006, 48.050349750810106 ], [ -68.339240703153052, 48.050364731609349 ], [ -68.339190124853005, 48.050397466945341 ], [ -68.339077426146218, 48.05045159785719 ], [ -68.338990463673824, 48.050516963409251 ], [ -68.338875604466224, 48.050612993448873 ], [ -68.338778181478361, 48.050733645741509 ], [ -68.338720105470671, 48.050829263163848 ], [ -68.338659467619152, 48.050942031635749 ], [ -68.338618053644097, 48.051014681211718 ], [ -68.338599694834798, 48.051108102135267 ], [ -68.338561986519892, 48.051234030976907 ], [ -68.338532299157819, 48.051329440372861 ], [ -68.338517367024266, 48.051459010509035 ], [ -68.338529429896184, 48.051572390822741 ], [ -68.33853156182596, 48.051703741485682 ], [ -68.338515733010667, 48.051778106844232 ], [ -68.338522493142278, 48.051844691608274 ], [ -68.338589215460061, 48.051931780454062 ], [ -68.338644489722967, 48.052013241350437 ], [ -68.338691338857643, 48.052100477016054 ], [ -68.338757694344125, 48.052164723829918 ], [ -68.338817750827332, 48.052190937825372 ], [ -68.338891879952797, 48.05220943587409 ], [ -68.339045910888075, 48.052252099876846 ], [ -68.339140099085384, 48.052281872694977 ], [ -68.339200218547589, 48.052311895580338 ], [ -68.339234939649529, 48.052351622933351 ], [ -68.339267099329362, 48.05240850319899 ], [ -68.339270866048125, 48.052465589825459 ], [ -68.339246396278782, 48.052532403765994 ], [ -68.339215877420344, 48.052576414117929 ], [ -68.339137274012657, 48.052632199644144 ], [ -68.339081447576191, 48.052691628089171 ], [ -68.339000968336606, 48.052754279548409 ], [ -68.33882694338773, 48.052879300814261 ], [ -68.338711987005553, 48.052969619126628 ], [ -68.338591690323312, 48.053080920329037 ], [ -68.338446301506266, 48.05322096223135 ], [ -68.338306903356809, 48.053379998526438 ], [ -68.338206786291892, 48.053510190857736 ], [ -68.33808738587841, 48.053676696550895 ], [ -68.338036125591046, 48.05372514128198 ], [ -68.337947683382239, 48.053787184230067 ], [ -68.337859125048112, 48.053842090898534 ], [ -68.337776953459738, 48.053896949437913 ], [ -68.337730614568486, 48.053928701422933 ], [ -68.337684507345173, 48.053974729424993 ], [ -68.337604696918149, 48.054043849065096 ], [ -68.337539213577301, 48.054077167659138 ], [ -68.33739936289804, 48.054121023752437 ], [ -68.33724876879073, 48.054159247241877 ], [ -68.337119330127862, 48.054188747484865 ], [ -68.337027645171659, 48.054182274817251 ], [ -68.336954757223012, 48.054152821439622 ], [ -68.336902815635099, 48.05410179513926 ], [ -68.336839786539855, 48.054023720494158 ], [ -68.336810670489129, 48.053935404308149 ], [ -68.336793956468483, 48.053824151908458 ], [ -68.336798960020602, 48.053738442294382 ], [ -68.336827130488913, 48.053636856902223 ], [ -68.336842731057828, 48.053548215583604 ], [ -68.336847684969882, 48.05345965006547 ], [ -68.336850671575192, 48.053381095100661 ], [ -68.336836737774419, 48.05330980375323 ], [ -68.33678033083126, 48.053245958983538 ], [ -68.33666411179027, 48.053171128180097 ], [ -68.336569929844003, 48.053141827924769 ], [ -68.336512365905037, 48.05313796505547 ], [ -68.336390939455057, 48.053135991826693 ], [ -68.336212665009924, 48.053174415072121 ], [ -68.33605154200265, 48.053219850565711 ], [ -68.335943169737106, 48.053234920092102 ], [ -68.335836854337089, 48.053258693827573 ], [ -68.335664735536966, 48.05332657958666 ], [ -68.335478573937394, 48.053404086911343 ], [ -68.335402496578666, 48.053440814143585 ], [ -68.335237101165063, 48.05357338159137 ], [ -68.335102568215632, 48.053682877039861 ], [ -68.33494525996808, 48.053788732093359 ], [ -68.334886158318753, 48.053821526379359 ], [ -68.33476178044792, 48.053856699971774 ], [ -68.334682402118545, 48.053864891900467 ], [ -68.334619536201956, 48.053840599142845 ], [ -68.334589975434142, 48.053768467280563 ], [ -68.334585412815017, 48.053661885433755 ], [ -68.334594739778339, 48.053536164525639 ], [ -68.33461579236166, 48.053433203960324 ], [ -68.334665391411363, 48.053339555623253 ], [ -68.334720855799262, 48.053257287431791 ], [ -68.334773323606768, 48.053165520936417 ], [ -68.334833879979783, 48.053047042489197 ], [ -68.334883727349265, 48.052968625109841 ], [ -68.334982964337868, 48.052848448159025 ], [ -68.335029932291533, 48.052789802441751 ], [ -68.335142197400387, 48.052708073175026 ], [ -68.335333544720598, 48.052578172661278 ], [ -68.335428599450381, 48.052529885290099 ], [ -68.335521743894944, 48.052473283674388 ], [ -68.33564287940473, 48.052391488156992 ], [ -68.335783587901631, 48.052313121851064 ], [ -68.335916367544797, 48.052228962876121 ], [ -68.336014683443253, 48.052162801158019 ], [ -68.336123315961288, 48.052076339294103 ], [ -68.336219605423594, 48.051994725252115 ], [ -68.336351269137012, 48.051905713446715 ], [ -68.33656540776974, 48.051758986907764 ], [ -68.336683126848683, 48.05168554501126 ], [ -68.336813263432092, 48.051612013666237 ], [ -68.336938900712482, 48.051536848797831 ], [ -68.337051513383628, 48.051477010034553 ], [ -68.337103344154286, 48.051433794692741 ], [ -68.337173397662085, 48.051376169025673 ], [ -68.33727156492651, 48.051301203777605 ], [ -68.337400673356598, 48.051207926563187 ], [ -68.337484326456973, 48.051142891167743 ] ] ] } },
{ "type": "Feature", "properties": { "PROFONDEUR_M": 3.3, "HYDRONYME": "Saint-Jean, Lac" }, "geometry": { "type": "MultiLineString", "coordinates": [ [ [ -68.336403342298823, 48.051921231481487 ], [ -68.336510995283035, 48.051861905555832 ], [ -68.336599598320163, 48.051809856070463 ], [ -68.336660863780509, 48.051779423655418 ], [ -68.33670282871455, 48.051740565622325 ], [ -68.336723636238474, 48.051710428698748 ], [ -68.336759164897131, 48.051668760912158 ], [ -68.336837121105859, 48.05161679063557 ], [ -68.336949101335719, 48.051561714968713 ], [ -68.337029368924789, 48.05152114982674 ], [ -68.33710535745594, 48.05147918627555 ], [ -68.337179122375844, 48.051431529244432 ], [ -68.337267886538356, 48.051389474953751 ], [ -68.337362968210613, 48.051343088678408 ], [ -68.337462218181031, 48.051290960867448 ], [ -68.337519131848254, 48.051254851177362 ], [ -68.33758014493975, 48.051208712512832 ], [ -68.337628448333689, 48.051166951982381 ], [ -68.337686890115961, 48.051093704066631 ], [ -68.337734776728894, 48.051026245645851 ], [ -68.337772086144355, 48.05096314697014 ], [ -68.337803149582555, 48.050908660493228 ], [ -68.337832859805246, 48.050844279387427 ], [ -68.337878184074071, 48.050793973775477 ], [ -68.337967332917074, 48.050710029561877 ], [ -68.338075825194096, 48.050615236421606 ], [ -68.338126819733091, 48.050586307622027 ], [ -68.338174517631231, 48.050572871549406 ], [ -68.338261218330558, 48.050556768698058 ], [ -68.338365543576288, 48.050533399411833 ], [ -68.338443137880475, 48.050503086432911 ], [ -68.338497700956623, 48.050475320003656 ], [ -68.338564860895303, 48.050458171002504 ], [ -68.338665755825488, 48.050441966540099 ], [ -68.338775403588258, 48.050418557967532 ], [ -68.338849643089318, 48.050400166665895 ], [ -68.33890459170145, 48.050396195113585 ], [ -68.338943901994824, 48.050412568142193 ], [ -68.338940913319945, 48.050447097338576 ], [ -68.338886368082669, 48.050476051849515 ], [ -68.338809391979652, 48.050544439814978 ], [ -68.338725648841518, 48.050633102679086 ], [ -68.338638623792761, 48.05073844971853 ], [ -68.338572971322307, 48.050848399829633 ], [ -68.338502166803295, 48.050969095776708 ], [ -68.338461047082205, 48.051059828564007 ], [ -68.33844444309274, 48.051130154412839 ], [ -68.338411928837502, 48.051304613417123 ], [ -68.338374009500114, 48.051373903305226 ], [ -68.338301295861214, 48.051486285104822 ], [ -68.338270398173776, 48.051550763882155 ], [ -68.338254005394987, 48.051634177875329 ], [ -68.338259020937144, 48.051724574398044 ], [ -68.338317467226901, 48.051826478898015 ], [ -68.338408278653503, 48.05195432639843 ], [ -68.33850693798928, 48.052092108989278 ], [ -68.338569641410004, 48.052150194606774 ], [ -68.338651209448585, 48.052189581398181 ], [ -68.338783951235882, 48.052232876107254 ], [ -68.338875955995391, 48.05225933328795 ], [ -68.338963889073398, 48.052297243760748 ], [ -68.339056222795534, 48.052343690446932 ], [ -68.339114272404686, 48.052377535515902 ], [ -68.339144943875581, 48.052430142434325 ], [ -68.339145847654606, 48.052485823903965 ], [ -68.339110621712308, 48.052546052419665 ], [ -68.339008622727221, 48.052691012806918 ], [ -68.338940706134622, 48.052744191335378 ], [ -68.33891607358872, 48.052757460420452 ], [ -68.33887348511098, 48.052757771621536 ], [ -68.338832186682168, 48.052728325742976 ], [ -68.338821055889241, 48.05269866004349 ], [ -68.33879416728783, 48.052682197372533 ], [ -68.33875692232543, 48.052683659300129 ], [ -68.338712771300948, 48.052697070344209 ], [ -68.338672363307097, 48.052722352722327 ], [ -68.338644608127737, 48.052761821562264 ], [ -68.338600129848174, 48.052864478419401 ], [ -68.338528861169024, 48.052956620870496 ], [ -68.338405435747148, 48.05311577707743 ], [ -68.338306256872499, 48.053237870859888 ], [ -68.338247080461215, 48.053309697501923 ], [ -68.3382006174282, 48.053399279668689 ], [ -68.338140866289805, 48.053520044892146 ], [ -68.338054280871233, 48.053652754243558 ], [ -68.338010688092567, 48.053700669028402 ], [ -68.337949020602437, 48.053728485923074 ], [ -68.337831051855844, 48.053786461911834 ], [ -68.337750154914289, 48.053832267378837 ], [ -68.337644893771682, 48.053907998776182 ], [ -68.337566022795102, 48.053969258075078 ], [ -68.337469404370708, 48.05403064735173 ], [ -68.337344064447691, 48.054072018013308 ], [ -68.337223700300029, 48.054091933848504 ], [ -68.33711726516421, 48.054095087667811 ], [ -68.337054997599395, 48.054086024289937 ], [ -68.33699597477603, 48.054057895479318 ], [ -68.336938379217685, 48.054008339043335 ], [ -68.336905643610208, 48.05395979177753 ], [ -68.336890368599427, 48.053893269531507 ], [ -68.336887399028072, 48.053819516330719 ], [ -68.336880706955142, 48.053735083182325 ], [ -68.336884794800497, 48.053658898319703 ], [ -68.336893919276349, 48.053564829630112 ], [ -68.336902117182021, 48.053523123534553 ], [ -68.336908445077057, 48.053475482632493 ], [ -68.336900210080813, 48.05340533728053 ], [ -68.336897373760351, 48.053339913611183 ], [ -68.336887535292377, 48.05328049062561 ], [ -68.336858432525062, 48.053236676810343 ], [ -68.336808144373322, 48.053200156177446 ], [ -68.336706992980822, 48.053148215165407 ], [ -68.336606985452136, 48.053109914237439 ], [ -68.336504355855695, 48.053084958791253 ], [ -68.336417662978661, 48.05307987966021 ], [ -68.336304060800444, 48.053078802880947 ], [ -68.336241688878829, 48.053084967701132 ], [ -68.336190827598045, 48.053100567976443 ], [ -68.336157205106474, 48.053128419631967 ], [ -68.336122189392725, 48.05315818267065 ], [ -68.336081235186739, 48.053171808755145 ], [ -68.336021734996535, 48.05317985709074 ], [ -68.335955134400237, 48.053187955857993 ], [ -68.335884398812482, 48.053203702353336 ], [ -68.335800977629631, 48.053225251118114 ], [ -68.33570363885417, 48.053264036288503 ], [ -68.335593751903474, 48.053317191445537 ], [ -68.335457077128211, 48.053381963305895 ], [ -68.335354165412383, 48.053427451380358 ], [ -68.335272549409638, 48.053472786289674 ], [ -68.335181319241372, 48.053538180335458 ], [ -68.335118448436631, 48.053592142340158 ], [ -68.334988477072699, 48.053676380641193 ], [ -68.334875978549789, 48.053743832006546 ], [ -68.33482478539915, 48.05376086267222 ], [ -68.334768115862829, 48.05376841465111 ], [ -68.334720085006467, 48.053761624866709 ], [ -68.334682282140577, 48.053728581340017 ], [ -68.334658230664729, 48.053668071019949 ], [ -68.334653527670156, 48.053596710614791 ], [ -68.334644987288613, 48.053507530364392 ], [ -68.334661733210666, 48.053445534380522 ], [ -68.334688992828845, 48.053375131530416 ], [ -68.334763451943815, 48.05326036087893 ], [ -68.334830775432295, 48.053143261250412 ], [ -68.334888413223283, 48.053085726045509 ], [ -68.334944140854276, 48.053019878439805 ], [ -68.335032796818012, 48.052905003243843 ], [ -68.335087041996289, 48.052844193456927 ], [ -68.335204676911445, 48.052743385848203 ], [ -68.335305481722344, 48.052655553331739 ], [ -68.335374875081385, 48.052600788997971 ], [ -68.335442231959135, 48.052551751242966 ], [ -68.335539447514932, 48.052505351753204 ], [ -68.335600670465666, 48.052472065802966 ], [ -68.335655506581219, 48.052438825946787 ], [ -68.335697307886321, 48.052389974340926 ], [ -68.335760382486328, 48.052339537985311 ], [ -68.335838503223172, 48.052297562321591 ], [ -68.335891253251177, 48.0522671930486 ], [ -68.335946064196648, 48.052232525087753 ], [ -68.336019853476728, 48.05218629496575 ], [ -68.336104038323782, 48.052124283312388 ], [ -68.336245185294743, 48.052029016668811 ], [ -68.336403342298823, 48.051921231481487 ] ] ] } },
{ "type": "Feature", "properties": { "PROFONDEUR_M": 4.9, "HYDRONYME": "Saint-Jean, Lac" }, "geometry": { "type": "MultiLineString", "coordinates": [ [ [ -68.336440508355466, 48.051969617679376 ], [ -68.336550544638939, 48.051925979076223 ], [ -68.336641321663691, 48.051876770679904 ], [ -68.336736151405077, 48.051814680976122 ], [ -68.336757168310896, 48.05179739388646 ], [ -68.336763094789916, 48.051768792092453 ], [ -68.336753906094273, 48.051727451245149 ], [ -68.336764042607314, 48.051695963938215 ], [ -68.336806123113178, 48.051664243866156 ], [ -68.336865261166821, 48.051633827944535 ], [ -68.336937059371863, 48.051596179786124 ], [ -68.337055426068289, 48.051541057804855 ], [ -68.337148725801271, 48.051516104109055 ], [ -68.337241934423304, 48.05148543849463 ], [ -68.337385645493441, 48.051417281438724 ], [ -68.337513585971408, 48.05135169067043 ], [ -68.337608645233999, 48.051303878025621 ], [ -68.337667434779888, 48.051252044085146 ], [ -68.337734208100059, 48.051167313205084 ], [ -68.337815701914138, 48.051071049490552 ], [ -68.337901595570088, 48.050983323847483 ], [ -68.338021278056971, 48.050878214682449 ], [ -68.338103281372852, 48.050813362265124 ], [ -68.338159777205689, 48.050751550807973 ], [ -68.338231065109312, 48.050682492156064 ], [ -68.338348966941581, 48.05059881506083 ], [ -68.338439554602928, 48.050538183361716 ], [ -68.33854092877101, 48.050486039770163 ], [ -68.338640567920905, 48.050458182591925 ], [ -68.338693711796864, 48.050452083684561 ], [ -68.338713152902031, 48.050469074838865 ], [ -68.338707227746013, 48.050497676692551 ], [ -68.338638095350376, 48.050568146968963 ], [ -68.338589931543382, 48.050618475671079 ], [ -68.338544173580956, 48.050685919605215 ], [ -68.338448563372467, 48.050830832804429 ], [ -68.338359225873873, 48.050968561671262 ], [ -68.338299467146555, 48.051091796115543 ], [ -68.338241766154553, 48.051210731840619 ], [ -68.338171454515191, 48.051339754022514 ], [ -68.338142871453698, 48.051415639799608 ], [ -68.338123011741757, 48.051504312506339 ], [ -68.338078575025179, 48.051690404271184 ], [ -68.338085459618057, 48.051764603642923 ], [ -68.338120518005979, 48.051825270536682 ], [ -68.338221282240909, 48.051910208874546 ], [ -68.338301891735398, 48.051978158396736 ], [ -68.338336611851972, 48.052017886024636 ], [ -68.338377411865181, 48.052082320009532 ], [ -68.338449320339805, 48.052138910475321 ], [ -68.338540977508941, 48.052187739460187 ], [ -68.338635105368596, 48.05221370723492 ], [ -68.338709328347392, 48.052237915452139 ], [ -68.338849440418102, 48.052297814769311 ], [ -68.33894381640448, 48.052339011456247 ], [ -68.338984215913541, 48.052378696914893 ], [ -68.33901072801811, 48.0524375219847 ], [ -68.338995113468371, 48.052525212114503 ], [ -68.338956354155371, 48.052586419095917 ], [ -68.338919999844734, 48.052620954002691 ], [ -68.338863523899306, 48.052640404815556 ], [ -68.338812325029195, 48.052635067104084 ], [ -68.338755168560965, 48.05261263759725 ], [ -68.338681192641261, 48.052603658586435 ], [ -68.33861036763075, 48.052613695031198 ], [ -68.338551483576481, 48.052659815928486 ], [ -68.338509882922096, 48.052721043734607 ], [ -68.338477140247548, 48.052803147835448 ], [ -68.338428588312681, 48.052886460968296 ], [ -68.33834313447332, 48.053045104113927 ], [ -68.338246231541873, 48.053198117449803 ], [ -68.3381852795181, 48.053291851303776 ], [ -68.338121893103192, 48.053410350853831 ], [ -68.338069644945236, 48.053515443672502 ], [ -68.338048289731887, 48.053599368418993 ], [ -68.33801224129931, 48.053652939570028 ], [ -68.337967121278922, 48.053672306078866 ], [ -68.337921446525883, 48.053657408655759 ], [ -68.337881294232488, 48.053632951937253 ], [ -68.337839074724513, 48.053656106537552 ], [ -68.337774882308068, 48.053725112805402 ], [ -68.337662853719038, 48.053821120986896 ], [ -68.337536472818087, 48.05390771646239 ], [ -68.337409812953581, 48.053977178025789 ], [ -68.337336392155706, 48.054002462000888 ], [ -68.337254082261168, 48.054004964930854 ], [ -68.337157235825785, 48.053986633232505 ], [ -68.337074153237509, 48.053941545622123 ], [ -68.337013541471336, 48.053881064852362 ], [ -68.336978019956362, 48.053791841752947 ], [ -68.336965148448243, 48.053698647468792 ], [ -68.336954563705135, 48.053571168346252 ], [ -68.336952711658043, 48.053456951088648 ], [ -68.336965429777294, 48.05336547478656 ], [ -68.336947282948387, 48.053297068980527 ], [ -68.336909600152268, 48.053249747167065 ], [ -68.336851674055254, 48.053179726271019 ], [ -68.336773962339251, 48.053115561911163 ], [ -68.336691006482198, 48.053078088656036 ], [ -68.336568115426417, 48.05302948459731 ], [ -68.336462754559264, 48.053011213264945 ], [ -68.336269528986264, 48.053003100433699 ], [ -68.336141882242302, 48.053011643607 ], [ -68.336094108529409, 48.05304245392886 ], [ -68.336043465572175, 48.053071380590765 ], [ -68.33594479917447, 48.053115886475922 ], [ -68.335888287567045, 48.053133431169371 ], [ -68.335814651675278, 48.053145391224739 ], [ -68.335755644951604, 48.053183896015355 ], [ -68.335676698976741, 48.053218739784541 ], [ -68.335591980667488, 48.053247913439307 ], [ -68.335507989460694, 48.053302153614382 ], [ -68.335432136893175, 48.053352682109235 ], [ -68.335353807773444, 48.053381807664657 ], [ -68.3352568653047, 48.053445340799861 ], [ -68.335176570977893, 48.053484476748167 ], [ -68.335075371036382, 48.053548039257478 ], [ -68.334988868298908, 48.053598643064063 ], [ -68.334917090273152, 48.053637717977523 ], [ -68.3348684330102, 48.053658061551772 ], [ -68.334802373818391, 48.053655686557782 ], [ -68.334757286363725, 48.053633167050215 ], [ -68.334733167968523, 48.053590506663681 ], [ -68.334729908580741, 48.053520563796681 ], [ -68.334730815505978, 48.053444879568616 ], [ -68.334757366041188, 48.053374721113094 ], [ -68.3348089195852, 48.053270110842682 ], [ -68.3349025752768, 48.053135209137096 ], [ -68.334988337793035, 48.053038917818505 ], [ -68.33509539564443, 48.052942471604737 ], [ -68.335158031677594, 48.052864911487916 ], [ -68.3352179193475, 48.05280120214637 ], [ -68.335322961887087, 48.052711910312333 ], [ -68.335480798737763, 48.052595105224079 ], [ -68.335598707374231, 48.052511430953778 ], [ -68.335699835638636, 48.052443584148534 ], [ -68.335758488333639, 48.052383187017661 ], [ -68.335817259162553, 48.052329926062875 ], [ -68.335929011028782, 48.052260575406784 ], [ -68.336032405757777, 48.052201279493822 ], [ -68.336100155056144, 48.05217651308714 ], [ -68.336174037682099, 48.052135994709758 ], [ -68.336264025648887, 48.0520626063443 ], [ -68.336342120747986, 48.052019202363375 ], [ -68.336440508355466, 48.051969617679376 ] ] ] } },
{ "type": "Feature", "properties": { "PROFONDEUR_M": 6.6, "HYDRONYME": "Saint-Jean, Lac" }, "geometry": { "type": "MultiLineString", "coordinates": [ [ [ -68.336462039767909, 48.052059738168595 ], [ -68.336608415135203, 48.052024403205976 ], [ -68.336733495035929, 48.051989223213496 ], [ -68.3368074925679, 48.051955842407693 ], [ -68.336843299628441, 48.05193130830736 ], [ -68.336868297821937, 48.051896857873132 ], [ -68.336863506402082, 48.051864049782395 ], [ -68.336841403772397, 48.051814235374181 ], [ -68.336813187425548, 48.051781600877582 ], [ -68.336812539893828, 48.051741623394463 ], [ -68.336867002366418, 48.051685539186302 ], [ -68.336940607948989, 48.05162788839251 ], [ -68.33705281691725, 48.051587090410059 ], [ -68.337154475908932, 48.051552079981313 ], [ -68.337254278027913, 48.051534219776499 ], [ -68.337330520072044, 48.051507961818722 ], [ -68.337477334546563, 48.051436895751145 ], [ -68.33765944452476, 48.051372741189944 ], [ -68.337777925712189, 48.051324756416783 ], [ -68.337841275364084, 48.051291454417608 ], [ -68.337885296991075, 48.051248297246246 ], [ -68.3379315199888, 48.051209407317337 ], [ -68.337976051961121, 48.051197657999367 ], [ -68.338006257811813, 48.051221711390198 ], [ -68.338009566025946, 48.051294509862878 ], [ -68.337991838574794, 48.051383167715542 ], [ -68.337971564586852, 48.051446142533059 ], [ -68.337967120758563, 48.051566117572676 ], [ -68.337971869329778, 48.051727433375966 ], [ -68.337986221065165, 48.051824424106243 ], [ -68.33802809194313, 48.051911219234924 ], [ -68.33809584345812, 48.052017817121907 ], [ -68.338195393463266, 48.052115614022249 ], [ -68.33825984475051, 48.052210203946245 ], [ -68.338314469972687, 48.052251691152648 ], [ -68.338442882970071, 48.052290733862804 ], [ -68.338551362556501, 48.052326115979135 ], [ -68.338642928998667, 48.052369234850211 ], [ -68.338666417647502, 48.052416660906346 ], [ -68.338678637628789, 48.052469879116529 ], [ -68.338650617409598, 48.052492929096005 ], [ -68.338574020074319, 48.052497295628342 ], [ -68.338488718429375, 48.052490303145866 ], [ -68.338426193822457, 48.052486951901535 ], [ -68.338358420479906, 48.052510291830522 ], [ -68.338322190916713, 48.05255244112535 ], [ -68.338286823635684, 48.052647890756184 ], [ -68.338229301929189, 48.052777772025237 ], [ -68.338210352823864, 48.05283502647103 ], [ -68.338208658590673, 48.052905479750109 ], [ -68.338155947448556, 48.052982018703382 ], [ -68.338120735879045, 48.053086987486218 ], [ -68.338085709095381, 48.05320337636536 ], [ -68.338047164271842, 48.053277907718815 ], [ -68.337996685077925, 48.053404535821059 ], [ -68.337934028134868, 48.053480669692192 ], [ -68.337877181126615, 48.053521065404155 ], [ -68.337826235288489, 48.053531433007976 ], [ -68.337751355955803, 48.05351055918576 ], [ -68.337685018215495, 48.053491054021102 ], [ -68.337618981212842, 48.05349010692774 ], [ -68.33756171473452, 48.053504804536146 ], [ -68.337517552823712, 48.053539393919728 ], [ -68.337461050188239, 48.053601205257962 ], [ -68.337425639225984, 48.053650011402695 ], [ -68.33739450463375, 48.053700214073118 ], [ -68.337343790127903, 48.053724857480866 ], [ -68.337292984545584, 48.053743789010582 ], [ -68.337227131928216, 48.053754265388044 ], [ -68.33716530746166, 48.053750432475915 ], [ -68.337096746065441, 48.05372522988359 ], [ -68.337076885283807, 48.053682538613209 ], [ -68.337047214939147, 48.053559956812521 ], [ -68.337032864582909, 48.053462965736053 ], [ -68.337025292602192, 48.053390198424061 ], [ -68.337015665094668, 48.053321729816467 ], [ -68.336984694957579, 48.053250562311234 ], [ -68.336928334723396, 48.053189573552181 ], [ -68.336837624191418, 48.053111702210401 ], [ -68.336764481787426, 48.053066541147032 ], [ -68.336605837024067, 48.053002014577039 ], [ -68.336492236170287, 48.05295714882206 ], [ -68.336406802735283, 48.052942065287958 ], [ -68.336306487944469, 48.052928516766848 ], [ -68.336231910345191, 48.052926203607583 ], [ -68.336142864376384, 48.052951125173742 ], [ -68.33606699098641, 48.053000226135119 ], [ -68.335963132164963, 48.053030966488386 ], [ -68.335878414361446, 48.053060140363343 ], [ -68.335819461010573, 48.053101977700209 ], [ -68.335728471717417, 48.053138337413429 ], [ -68.335607738608502, 48.05317919497891 ], [ -68.335516517927758, 48.053201278488956 ], [ -68.335454969434906, 48.053214574734035 ], [ -68.335344818590031, 48.053248075806344 ], [ -68.335243113333334, 48.053280228668719 ], [ -68.335196679894423, 48.053306267670699 ], [ -68.335180498915349, 48.053359216839894 ], [ -68.335136932156971, 48.05343092687783 ], [ -68.335069988892741, 48.053505664242714 ], [ -68.335008997872364, 48.053553227776611 ], [ -68.33494314502417, 48.053563700937104 ], [ -68.334915069095928, 48.05353963184784 ], [ -68.334920788001995, 48.053498180215342 ], [ -68.334977244369909, 48.05343351610199 ], [ -68.335014468531725, 48.053364706337938 ], [ -68.335044794423737, 48.053264534668095 ], [ -68.335085835481479, 48.053168567666944 ], [ -68.335153893441202, 48.05303099780798 ], [ -68.335211854587627, 48.052927769253778 ], [ -68.335259449448728, 48.052841750072162 ], [ -68.335303381336203, 48.052792883830023 ], [ -68.335469677583987, 48.052666881578695 ], [ -68.335581224364461, 48.05258468320627 ], [ -68.335686331863528, 48.052499673116714 ], [ -68.335801744014049, 48.052393169627841 ], [ -68.335849841012092, 48.052338561788375 ], [ -68.335921503428665, 48.052292348313891 ], [ -68.336008068971708, 48.052246024107774 ], [ -68.336109449390705, 48.052193882709375 ], [ -68.336232193754157, 48.052145870037023 ], [ -68.336357067674882, 48.052097840634644 ], [ -68.336462039767909, 48.052059738168595 ] ] ] } },
{ "type": "Feature", "properties": { "PROFONDEUR_M": 8.2, "HYDRONYME": "Saint-Jean, Lac" }, "geometry": { "type": "MultiLineString", "coordinates": [ [ [ -68.335668574947604, 48.052586902758136 ], [ -68.335805280126877, 48.052480244292262 ], [ -68.335945966335586, 48.05235642417464 ], [ -68.336066028123227, 48.052274160794788 ], [ -68.336196920304701, 48.052203241644285 ], [ -68.336341050844624, 48.052160783822508 ], [ -68.336466318533539, 48.052137026026898 ], [ -68.336585194007583, 48.052113314260062 ], [ -68.336718749216445, 48.052075217390836 ], [ -68.336818367964113, 48.052045933892181 ], [ -68.336873268957902, 48.052016977307396 ], [ -68.336921113500324, 48.051946661446323 ], [ -68.337004077623561, 48.051831387966025 ], [ -68.337082031750754, 48.051735626583934 ], [ -68.337208748642865, 48.051669972906808 ], [ -68.337338672596644, 48.051627141889881 ], [ -68.337465789659504, 48.051586234412618 ], [ -68.337584481158956, 48.051551099678569 ], [ -68.337675396992736, 48.051554245477803 ], [ -68.337761313920225, 48.051599311520476 ], [ -68.337787824094661, 48.051658136834092 ], [ -68.337766776404848, 48.051761097782105 ], [ -68.337687188454836, 48.051931120139038 ], [ -68.337590501740607, 48.052097459090298 ], [ -68.337490666632476, 48.052244782463212 ], [ -68.337396290808712, 48.052378739238335 ], [ -68.337357438544856, 48.052434233782542 ], [ -68.33727605503276, 48.052493846169867 ], [ -68.337137734337716, 48.052544352770255 ], [ -68.337067184776004, 48.052571521927213 ], [ -68.337053543624677, 48.052605890490952 ], [ -68.337102182695091, 48.052628381924819 ], [ -68.337184427766175, 48.0526220718179 ], [ -68.337280623517856, 48.052600427738959 ], [ -68.337371757327176, 48.052616898439204 ], [ -68.337431967147452, 48.052652632375001 ], [ -68.337455395779912, 48.052700771686297 ], [ -68.337454192557217, 48.052757895963452 ], [ -68.33741440404026, 48.052799593656431 ], [ -68.33741498313691, 48.052835287304227 ], [ -68.337474861401873, 48.052850556770792 ], [ -68.337547102212909, 48.05284003582161 ], [ -68.337604064542035, 48.052806778328524 ], [ -68.337673085822033, 48.052729170509366 ], [ -68.337737918914854, 48.0526558743666 ], [ -68.337820223709599, 48.052609581907618 ], [ -68.337896745825802, 48.052600457248388 ], [ -68.337954587918944, 48.052621454913648 ], [ -68.338002848911628, 48.052708203881416 ], [ -68.338017874361682, 48.052846596617634 ], [ -68.338011717415839, 48.052992286416 ], [ -68.338011698738001, 48.053122224195484 ], [ -68.337991167434495, 48.053169493368713 ], [ -68.337936889490024, 48.053237000158816 ], [ -68.337891037017471, 48.053298732192843 ], [ -68.337834096408201, 48.053333416016983 ], [ -68.337757876527959, 48.053361102363077 ], [ -68.337692024537375, 48.053371579022155 ], [ -68.337615178384453, 48.053360715667296 ], [ -68.337539836043362, 48.053311289653372 ], [ -68.337489977722626, 48.053257392956965 ], [ -68.337397392724839, 48.053195240880697 ], [ -68.337335312566836, 48.053175704082349 ], [ -68.337277886422257, 48.053180403987824 ], [ -68.337216363205002, 48.053195132824428 ], [ -68.337152224903051, 48.053179892811265 ], [ -68.337111280702416, 48.053150206695911 ], [ -68.337082647157587, 48.05309187068309 ], [ -68.337062047892275, 48.053003491853453 ], [ -68.337037395789125, 48.05292799429359 ], [ -68.336981057940079, 48.052868433549129 ], [ -68.336910139270231, 48.052828969652957 ], [ -68.336832900127732, 48.052793835792777 ], [ -68.336755754755359, 48.052764411925018 ], [ -68.336695736354869, 48.052740576084183 ], [ -68.336614678599588, 48.052732599335933 ], [ -68.336527578459879, 48.052746082724966 ], [ -68.336466171249711, 48.052767949128729 ], [ -68.336413881027724, 48.052826872540905 ], [ -68.336344281955334, 48.052868787708164 ], [ -68.336291437956689, 48.052893445375581 ], [ -68.33619142072294, 48.052898458454898 ], [ -68.336068005413907, 48.052905067422955 ], [ -68.335979232683371, 48.052924871478332 ], [ -68.335847807049916, 48.05296295269207 ], [ -68.335720778494348, 48.053009568365383 ], [ -68.335617175259813, 48.053056014176306 ], [ -68.335517897603637, 48.053106712429887 ], [ -68.335439544211326, 48.053134411878055 ], [ -68.335380059543255, 48.053143411229797 ], [ -68.33531402306464, 48.053142462710795 ], [ -68.335279582378448, 48.053119867799474 ], [ -68.335276575250901, 48.053065630783252 ], [ -68.33530734041139, 48.052992584966702 ], [ -68.335369467365794, 48.052883613141105 ], [ -68.335478304638883, 48.052765737763728 ], [ -68.335597721720987, 48.052643497328376 ], [ -68.335668574947604, 48.052586902758136 ] ] ] } },
{ "type": "Feature", "properties": { "PROFONDEUR_M": 9.8, "HYDRONYME": "Saint-Jean, Lac" }, "geometry": { "type": "MultiLineString", "coordinates": [ [ [ -68.336317518363828, 48.052338426168909 ], [ -68.33640031409719, 48.052322116613361 ], [ -68.336451245235182, 48.052311036624921 ], [ -68.336506634240649, 48.052312062002876 ], [ -68.336537834741847, 48.052331824562721 ], [ -68.336541548708269, 48.052363925198527 ], [ -68.336515392850231, 48.052392672929997 ], [ -68.336463662523457, 48.052420179199274 ], [ -68.336392810605034, 48.052450681678835 ], [ -68.336297805686172, 48.052502062315256 ], [ -68.336225867929002, 48.052531144121446 ], [ -68.336171161459362, 48.052572235363087 ], [ -68.33610793829078, 48.052613391125945 ], [ -68.336065556425524, 48.05262654925572 ], [ -68.336018650591754, 48.05262332168094 ], [ -68.335978919806351, 48.052602906806264 ], [ -68.335972996527218, 48.052565825761022 ], [ -68.336007228999947, 48.052509887747959 ], [ -68.336053129931983, 48.05245101070674 ], [ -68.336129964116409, 48.052395477474079 ], [ -68.336202921180515, 48.052363534228391 ], [ -68.336268670177816, 48.05234663538436 ], [ -68.336317518363828, 48.052338426168909 ] ] ] } },
{ "type": "Feature", "properties": { "PROFONDEUR_M": 9.8, "HYDRONYME": "Saint-Jean, Lac" }, "geometry": { "type": "MultiLineString", "coordinates": [ [ [ -68.33795527785577, 48.05310037483784 ], [ -68.337951489369132, 48.053140262608537 ], [ -68.3379282839566, 48.053186839922589 ], [ -68.337878685141661, 48.053247291773992 ], [ -68.337826191450617, 48.053293485200541 ], [ -68.33778041878017, 48.053316426767928 ], [ -68.337738050087069, 48.053330419605338 ], [ -68.337687474815269, 48.053330788595545 ], [ -68.337641163179143, 48.053320417579066 ], [ -68.337601813228304, 48.053301664672524 ], [ -68.337573083595117, 48.053281052291979 ], [ -68.337566457548519, 48.053255516414154 ], [ -68.337580305422151, 48.05323399761744 ], [ -68.337628055278756, 48.053223535012592 ], [ -68.337666171736515, 48.053220877942692 ], [ -68.337701344309835, 48.053200987375732 ], [ -68.337725722780021, 48.053172252868393 ], [ -68.337743883335889, 48.053142967338751 ], [ -68.337761088615963, 48.053109524742261 ], [ -68.33778544073013, 48.053079004823786 ], [ -68.337814401332579, 48.053059160744063 ], [ -68.337860396755687, 48.053049901257864 ], [ -68.337910114845954, 48.053051321661101 ], [ -68.337945806038903, 48.053063557470416 ], [ -68.337954912631304, 48.053077769338863 ], [ -68.33795527785577, 48.05310037483784 ] ] ] } }
]
}
